NORAD_CAT_ID,OBJECT_NAME,OBJECT_TYPE,EPOCH,MEAN_MOTION,ECCENTRICITY,INCLINATION,RA_OF_ASC_NODE,ARG_OF_PERICENTER,MEAN_ANOMALY,BSTAR,MEAN_MOTION_DOT,MEAN_MOTION_DDOT,TLE_LINE0,TLE_LINE1,TLE_LINE2,SEMIMAJOR_AXIS,PERIOD,APOGEE,PERIGEE,DECAYED
54195.0,STARLINK-5258,PAYLOAD,2023-04-04 10:16:46,15.08846203,0.0001413,53.2172,118.7904,89.6255,270.4899,3.6473e-06,-2.3e-06,0.0,0 STARLINK-5258,1 54195U 22141AQ  23094.42831336 -.00000230  00000-0  36473-5 0  9996,2 54195  53.2172 118.7904 0001413  89.6255 270.4899 15.08846203 24428,6917.861,95.437,540.704,538.749,0.0
54195.0,STARLINK-5258,PAYLOAD,2023-04-05 00:35:15,15.08832801,0.0001515,53.2167,116.1153,80.0846,280.0317,-1.2525e-05,-4.87e-06,0.0,0 STARLINK-5258,1 54195U 22141AQ  23095.02448288 -.00000487  00000-0 -12525-4 0  9999,2 54195  53.2167 116.1153 0001515  80.0846 280.0317 15.08832801 24740,6917.902,95.438,540.815,538.719,0.0
54195.0,STARLINK-5258,PAYLOAD,2023-04-05 11:42:57,15.08832374,0.0001395,53.2172,114.0321,80.9738,279.1412,-3.0453e-05,-7.72e-06,0.0,0 STARLINK-5258,1 54195U 22141AQ  23095.48816618 -.00000772  00000-0 -30453-4 0  9992,2 54195  53.2172 114.0321 0001395  80.9738 279.1412 15.08832374 24587,6917.904,95.438,540.734,538.804,0.0
54195.0,STARLINK-5258,PAYLOAD,2023-04-05 18:04:29,15.08835845,0.0001324,53.217,112.8418,82.198,277.9162,-1.8984e-05,-5.9e-06,0.0,0 STARLINK-5258,1 54195U 22141AQ  23095.75312412 -.00000590  00000-0 -18984-4 0  9998,2 54195  53.2170 112.8418 0001324  82.1980 277.9162 15.08835845 24622,6917.893,95.438,540.674,538.842,0.0
54195.0,STARLINK-5258,PAYLOAD,2023-04-06 05:12:10,15.08886524,0.0001625,53.2173,110.7611,73.4436,286.6735,-0.0005579,-9.167e-05,0.0,0 STARLINK-5258,1 54195U 22141AQ  23096.21678846 -.00009167  00000-0 -55790-3 0  9990,2 54195  53.2173 110.7611 0001625  73.4436 286.6735 15.08886524 24926,6917.738,95.435,540.727,538.479,0.0
54195.0,STARLINK-5258,PAYLOAD,2023-04-06 09:58:20,15.08842979,0.0001337,53.2167,109.8677,78.8844,281.2298,3.7247e-05,3.05e-06,0.0,0 STARLINK-5258,1 54195U 22141AQ  23096.41551811  .00000305  00000-0  37247-4 0  9995,2 54195  53.2167 109.8677 0001337  78.8844 281.2298 15.08842979 24956,6917.871,95.437,540.661,538.811,0.0
54195.0,STARLINK-5258,PAYLOAD,2023-04-06 13:09:06,15.08846251,0.0001364,53.2172,109.2735,80.5408,279.5738,6.2187e-05,7.02e-06,0.0,0 STARLINK-5258,1 54195U 22141AQ  23096.54799480  .00000702  00000-0  62187-4 0  9997,2 54195  53.2172 109.2735 0001364  80.5408 279.5738 15.08846251 24740,6917.861,95.437,540.67,538.783,0.0
54195.0,STARLINK-5258,PAYLOAD,2023-04-06 17:55:16,15.08837129,0.0001361,53.2173,108.383,86.2135,273.9013,-6.0741e-05,-1.254e-05,0.0,0 STARLINK-5258,1 54195U 22141AQ  23096.74672363 -.00001254  00000-0 -60741-4 0  9998,2 54195  53.2173 108.3830 0001361  86.2135 273.9013 15.08837129 25002,6917.889,95.438,540.696,538.813,0.0
54195.0,STARLINK-5258,PAYLOAD,2023-04-07 09:49:07,15.08839004,0.0001425,53.2175,105.4076,83.9155,276.2,7.5701e-05,9.17e-06,0.0,0 STARLINK-5258,1 54195U 22141AQ  23097.40911982  .00000917  00000-0  75701-4 0  9990,2 54195  53.2175 105.4076 0001425  83.9155 276.2000 15.08839004 24871,6917.883,95.438,540.734,538.763,0.0
54195.0,STARLINK-5258,PAYLOAD,2023-04-08 03:18:23,15.08835473,0.0001378,53.2169,102.1373,79.8783,280.2364,-4.4289e-05,-9.93e-06,0.0,0 STARLINK-5258,1 54195U 22141AQ  23098.13776733 -.00000993  00000-0 -44289-4 0  9997,2 54195  53.2169 102.1373 0001378  79.8783 280.2364 15.08835473 25219,6917.894,95.438,540.713,538.806,0.0
54195.0,STARLINK-5258,PAYLOAD,2023-04-08 09:39:55,15.0884278,0.0001357,53.217,100.9483,81.4067,278.7079,-3.6829e-05,-8.74e-06,0.0,0 STARLINK-5258,1 54195U 22141AQ  23098.40272266 -.00000874  00000-0 -36829-4 0  9998,2 54195  53.2170 100.9483 0001357  81.4067 278.7079 15.08842780 25258,6917.872,95.437,540.676,538.798,0.0
54195.0,STARLINK-5258,PAYLOAD,2023-04-09 11:06:04,15.08848275,0.0001382,53.2177,96.1897,89.8886,270.2264,3.7278e-05,3.06e-06,0.0,0 STARLINK-5258,1 54195U 22141AQ  23099.46255434  .00000306  00000-0  37278-4 0  9990,2 54195  53.2177  96.1897 0001382  89.8886 270.2264 15.08848275 25415,6917.855,95.437,540.676,538.764,0.0
54195.0,STARLINK-5258,PAYLOAD,2023-04-09 23:49:10,15.08832494,0.0001441,53.2173,93.8111,84.1552,275.9604,-1.2929e-06,-3.09e-06,0.0,0 STARLINK-5258,1 54195U 22141AQ  23099.99248633 -.00000309  00000-0 -12929-5 0  9993,2 54195  53.2173  93.8111 0001441  84.1552 275.9604 15.08832494 25492,6917.903,95.438,540.765,538.771,0.0
54195.0,STARLINK-5258,PAYLOAD,2023-04-10 10:56:52,15.08840143,0.0001354,53.2176,91.7301,87.1458,272.9689,1.7295e-05,-1.3e-07,0.0,0 STARLINK-5258,1 54195U 22141AQ  23100.45616145 -.00000013  00000-0  17295-4 0  9995,2 54195  53.2176  91.7301 0001354  87.1458 272.9689 15.08840143 25562,6917.88,95.438,540.682,538.808,0.0
54195.0,STARLINK-5258,PAYLOAD,2023-04-11 10:47:39,15.0884696,0.0001474,53.218,87.2691,92.2567,267.8593,1.8829e-05,1.2e-07,0.0,0 STARLINK-5258,1 54195U 22141AQ  23101.44975743  .00000012  00000-0  18829-4 0  9999,2 54195  53.2180  87.2691 0001474  92.2567 267.8593 15.08846960 25481,6917.859,95.437,540.744,538.704,0.0
54195.0,STARLINK-5258,PAYLOAD,2023-04-12 04:16:54,15.08829597,0.0001428,53.2189,83.999,106.1885,253.9265,-4.1943e-05,-9.55e-06,0.0,0 STARLINK-5258,1 54195U 22141AQ  23102.17841240 -.00000955  00000-0 -41943-4 0  9995,2 54195  53.2189  83.9990 0001428 106.1885 253.9265 15.08829597 25829,6917.912,95.438,540.765,538.789,0.0
54195.0,STARLINK-5258,PAYLOAD,2023-04-12 09:03:04,15.08833745,0.000126,53.2182,83.1065,95.5361,264.5775,-2.1544e-06,-3.22e-06,0.0,0 STARLINK-5258,1 54195U 22141AQ  23102.37712965 -.00000322  00000-0 -21544-5 0  9992,2 54195  53.2182  83.1065 0001260  95.5361 264.5775 15.08833745 25623,6917.9,95.438,540.636,538.893,0.0
54195.0,STARLINK-5258,PAYLOAD,2023-04-13 07:18:27,15.08840619,0.0001288,53.2177,78.9438,99.0266,261.0871,-3.2357e-05,-8.03e-06,0.0,0 STARLINK-5258,1 54195U 22141AQ  23103.30449000 -.00000803  00000-0 -32357-4 0  9990,2 54195  53.2177  78.9438 0001288  99.0266 261.0871 15.08840619 25768,6917.878,95.438,540.635,538.852,0.0
54195.0,STARLINK-5258,PAYLOAD,2023-04-13 15:15:23,15.08841943,0.0001152,53.2181,77.4569,93.5848,266.5276,-1.7952e-05,-5.74e-06,0.0,0 STARLINK-5258,1 54195U 22141AQ  23103.63568899 -.00000574  00000-0 -17952-4 0  9993,2 54195  53.2181  77.4569 0001152  93.5848 266.5276 15.08841943 26049,6917.874,95.437,540.536,538.943,0.0
54195.0,STARLINK-5258,PAYLOAD,2023-04-14 08:44:37,15.08842531,0.0001124,53.2177,74.1855,89.1496,270.9625,7.2973e-05,8.74e-06,0.0,0 STARLINK-5258,1 54195U 22141AQ  23104.36432737  .00000874  00000-0  72973-4 0  9990,2 54195  53.2177  74.1855 0001124  89.1496 270.9625 15.08842531 25922,6917.873,95.437,540.515,538.96,0.0
54195.0,STARLINK-5258,PAYLOAD,2023-04-15 03:49:15,15.0883758,0.0001007,53.2173,70.6164,91.6535,268.4573,5.811e-05,6.37e-06,0.0,0 STARLINK-5258,1 54195U 22141AQ  23105.15921078  .00000637  00000-0  58110-4 0  9993,2 54195  53.2173  70.6164 0001007  91.6535 268.4573 15.08837580 26275,6917.888,95.438,540.449,539.056,0.0
54195.0,STARLINK-5258,PAYLOAD,2023-04-15 07:00:01,15.08846917,0.0001254,53.2177,70.0226,83.9901,276.1234,5.5593e-05,5.97e-06,0.0,0 STARLINK-5258,1 54195U 22141AQ  23105.29168566  .00000597  00000-0  55593-4 0  9990,2 54195  53.2177  70.0226 0001254  83.9901 276.1234 15.08846917 26293,6917.859,95.437,540.592,538.857,0.0
54195.0,STARLINK-5258,PAYLOAD,2023-04-16 03:40:03,15.08840831,0.0001272,53.2184,66.1565,87.5181,272.5956,-5.6904e-05,-1.193e-05,0.0,0 STARLINK-5258,1 54195U 22141AQ  23106.15281389 -.00001193  00000-0 -56904-4 0  9997,2 54195  53.2184  66.1565 0001272  87.5181 272.5956 15.08840831 26428,6917.878,95.438,540.623,538.863,0.0
54195.0,STARLINK-5258,PAYLOAD,2023-04-16 06:50:48,15.08844744,0.0001321,53.2189,65.5608,101.8002,258.3139,-2.1332e-05,-6.27e-06,0.0,0 STARLINK-5258,1 54195U 22141AQ  23106.28528933 -.00000627  00000-0 -21332-4 0  9998,2 54195  53.2189  65.5608 0001321 101.8002 258.3139 15.08844744 26210,6917.866,95.437,540.645,538.817,0.0
54195.0,STARLINK-5258,PAYLOAD,2023-04-17 06:41:35,15.08852381,0.0001289,53.2185,61.1017,97.8275,262.2864,3.4071e-05,2.55e-06,0.0,0 STARLINK-5258,1 54195U 22141AQ  23107.27888216  .00000255  00000-0  34071-4 0  9990,2 54195  53.2185  61.1017 0001289  97.8275 262.2864 15.08852381 26362,6917.843,95.437,540.599,538.816,0.0
54195.0,STARLINK-5258,PAYLOAD,2023-04-17 21:00:04,15.08828769,0.0001613,53.2193,58.4226,101.6596,258.4577,0.00010461,1.377e-05,0.0,0 STARLINK-5258,1 54195U 22141AQ  23107.87505252  .00001377  00000-0  10461-3 0  9994,2 54195  53.2193  58.4226 0001613 101.6596 258.4577 15.08828769 26689,6917.915,95.438,540.896,538.664,0.0
54195.0,STARLINK-5258,PAYLOAD,2023-04-18 06:32:22,15.08846953,0.0001378,53.219,56.6403,94.0137,266.1012,2.3076e-05,7.9e-07,0.0,0 STARLINK-5258,1 54195U 22141AQ  23108.27248633  .00000079  00000-0  23076-4 0  9991,2 54195  53.2190  56.6403 0001378  94.0137 266.1012 15.08846953 26514,6917.859,95.437,540.677,538.771,0.0
54195.0,STARLINK-5258,PAYLOAD,2023-04-18 20:50:52,15.08832139,0.0001874,53.2195,53.9614,114.9176,245.2011,-5.7621e-05,-1.205e-05,0.0,0 STARLINK-5258,1 54195U 22141AQ  23108.86866028 -.00001205  00000-0 -57621-4 0  9997,2 54195  53.2195  53.9614 0001874 114.9176 245.2011 15.08832139 26832,6917.904,95.438,541.066,538.473,0.0
54195.0,STARLINK-5258,PAYLOAD,2023-04-19 06:23:10,15.08838666,0.0001078,53.2187,52.1819,89.4187,270.6928,-7.9932e-05,-1.56e-05,0.0,0 STARLINK-5258,1 54195U 22141AQ  23109.26609927 -.00001560  00000-0 -79932-4 0  9998,2 54195  53.2187  52.1819 0001078  89.4187 270.6928 15.08838666 26666,6917.884,95.438,540.495,539.004,0.0
54195.0,STARLINK-5258,PAYLOAD,2023-04-20 03:03:11,15.08840991,0.000102,53.2191,48.3162,83.1862,276.9247,1.9606e-06,-2.57e-06,0.0,0 STARLINK-5258,1 54195U 22141AQ  23110.12721711 -.00000257  00000-0  19606-5 0  9995,2 54195  53.2191  48.3162 0001020  83.1862 276.9247 15.08840991 27025,6917.877,95.437,540.448,539.037,0.0
